ONEWEB-0461             
1 51649U 22012AD  25172.45633615  .00000003  00000+0 -26753-4 0  9992
2 51649  87.9065  77.6645 0001927  75.3584 284.7762 13.17647484166383
ONEWEB-0463             
1 51650U 22012AE  25172.13403092  .00000015  00000+0  63553-5 0  9995
2 51650  87.9071  77.7922 0001891  77.7685 282.3659 13.17651363166121
ONEWEB-0464             
1 51651U 22012AF  25172.54914827 -.00000422  00000+0 -12460-2 0  9996
2 51651  87.8831 108.2030 0002151  86.7802 273.3571 13.10373705163399
ONEWEB-0468             
1 51652U 22012AG  25172.78487262 -.00000306  00000+0 -91234-3 0  9999
2 51652  87.8836 108.1482 0002013  79.3166 280.8188 13.10376525163393
ONEWEB-0473             
1 51653U 22012AH  25172.54085079 -.00000616  00000+0 -18021-2 0  9990
2 51653  87.8833 108.2003 0001916  81.0471 279.0873 13.10372068162074
ONEWEB-0474             
1 51654U 22012AJ  25172.53255607 -.00000455  00000+0 -13405-2 0  9998
2 51654  87.8819 108.1653 0001979  86.3403 273.7951 13.10371114162069
ONEWEB-0475             
1 51655U 22012AK  25172.44959340  .00000107  00000+0  24169-3 0  9996
2 51655  87.9069  77.7088 0001512 102.4167 257.7134 13.17649120166185
ONEWEB-0490             
1 54113U 22138A   25172.54989715 -.00000008  00000+0 -52408-4 0  9997
2 54113  87.9210  16.6435 0001955  92.0160 268.1197 13.19723920129267
